2023-104A               
1 57424U 23104A   26065.78279804  .00015492  00000+0  48200-3 0  9993
2 57424  97.2792 135.5625 0009333 122.1915 238.0234 15.33350758146346
STARLINK-35089          
1 65484U 25195AC  26068.91414344  .00027606  00000+0  94090-3 0  9996
2 65484  53.1615 257.4280 0001126 333.8824  26.2120 15.30194313 30005
